{
  "norad_id": 57921,
  "name": "STARLINK-30492",
  "history": [
    {
      "epoch": "2026-03-28T18:20:50.017056",
      "apogee_km": 484.04191975417143,
      "perigee_km": 482.07522665506804,
      "latitude_deg": -42.32104330242282,
      "longitude_deg": 45.48890784010291,
      "semi_major_axis_km": 6861.195573204619,
      "eccentricity": 0.00014332,
      "inclination_deg": 43.0037,
      "raan_deg": 217.6156,
      "arg_perigee_deg": 257.5665,
      "mean_anomaly_deg": 102.5026,
      "mean_motion_rev_day": 15.27576835
    }
  ]
}